HIMAWARI-8              
1 40267U 14060A   24106.56699128 -.00000286  00000+0  00000+0 0  9994
2 40267   0.0407 132.9653 0000835 271.9089 144.0903  1.00271333 34810
